ONEWEB-0196             
1 48218U 21031J   24221.54039611 -.00000250  00000+0 -70804-3 0  9990
2 48218  87.8922  64.4946 0001680  86.5693 273.5629 13.14501942159207
ONEWEB-0183             
1 48219U 21031K   24221.59115260 -.00000224  00000+0 -63871-3 0  9998
2 48219  87.8924  64.5001 0001885  87.7623 272.3722 13.14502451159304
ONEWEB-0185             
1 48220U 21031L   24221.54120233  .00000059  00000+0  12348-3 0  9998
2 48220  87.8920  64.4819 0001901  90.6493 269.4855 13.14501814159222
ONEWEB-0187             
1 48221U 21031M   24221.58719072 -.00000137  00000+0 -40274-3 0  9996
2 48221  87.8924  64.5061 0001853  88.6277 271.5065 13.14502320159242
ONEWEB-0192             
1 48222U 21031N   24221.56736378  .00000157  00000+0  38860-3 0  9991
2 48222  87.8926  64.5076 0001623  86.9249 273.2067 13.14501333159150
ONEWEB-0219             
1 48223U 21031P   24221.54675540 -.00000103  00000+0 -31099-3 0  9993
2 48223  87.8923  64.4857 0001824  90.9980 269.1359 13.14503107159355
ONEWEB-0202             
1 48224U 21031Q   24221.52772015 -.00000160  00000+0 -46641-3 0  9999
2 48224  87.8921  64.5082 0001256 113.4060 246.7202 13.14501950159334
ONEWEB-0204             
1 48225U 21031R   24221.56181489  .00000205  00000+0  51882-3 0  9994
2 48225  87.8923  64.5135 0002118  81.9168 278.2202 13.14501659159237
